start=new Date('2022-04-09T00:00:00.000Z').valueOf();
sats=[{"CENTER_NAME":"EARTH","ARG_OF_PERICENTER":"54.9403","PERIOD":"95.592","MEAN_ELEMENT_THEORY":"SGP4","ECCENTRICITY":"0.00015630","EPOCH":"2022-04-08T20:33:17.868384","COUNTRY_CODE":"US","FILE":"3393990","REF_FRAME":"TEME","OBJECT_NAME":"STARLINK-1932","ELEMENT_SET_NO":"999","EPHEMERIS_TYPE":"0","REV_AT_EPOCH":"8080","TLE_LINE2":"2 46770  53.0553 279.8792 0001563  54.9403 305.1732 15.06407851 80805","CLASSIFICATION_TYPE":"U","GP_ID":"200781573","DECAY_DATE":null,"LAUNCH_DATE":"2020-10-24","MEAN_ANOMALY":"305.1732","TLE_LINE1":"1 46770U 20074AH  22098.85645681  .00001569  00000-0  12418-3 0  9991","SEMIMAJOR_AXIS":"6925.324","OBJECT_TYPE":"PAYLOAD","RCS_SIZE":"LARGE","SITE":"AFETR","BSTAR":"0.00012418000000","MEAN_MOTION_DDOT":"0.0000000000000","APOAPSIS":"548.272","NORAD_CAT_ID":"46770","INCLINATION":"53.0553","MEAN_MOTION_DOT":"0.00001569","RA_OF_ASC_NODE":"279.8792","MEAN_MOTION":"15.06407851","TIME_SYSTEM":"UTC","PERIAPSIS":"546.107","OBJECT_ID":"2020-074AH"},{"ARG_OF_PERICENTER":"60.2927","CENTER_NAME":"EARTH","MEAN_ELEMENT_THEORY":"SGP4","PERIOD":"95.592","EPOCH":"2022-04-08T18:37:53.679936","ECCENTRICITY":"0.00017530","FILE":"3393990","COUNTRY_CODE":"US","REF_FRAME":"TEME","OBJECT_NAME":"STARLINK-1936","ELEMENT_SET_NO":"999","EPHEMERIS_TYPE":"0","TLE_LINE2":"2 46772  53.0552 280.2425 0001753  60.2927 299.8236 15.06400793 80791","REV_AT_EPOCH":"8079","CLASSIFICATION_TYPE":"U","DECAY_DATE":null,"GP_ID":"200780321","LAUNCH_DATE":"2020-10-24","MEAN_ANOMALY":"299.8236","TLE_LINE1":"1 46772U 20074AK  22098.77631574  .00001189  00000-0  98686-4 0  9990","OBJECT_TYPE":"PAYLOAD","SEMIMAJOR_AXIS":"6925.346","RCS_SIZE":"LARGE","SITE":"AFETR","BSTAR":"0.00009868600000","APOAPSIS":"548.425","MEAN_MOTION_DDOT":"0.0000000000000","NORAD_CAT_ID":"46772","MEAN_MOTION_DOT":"0.00001189","INCLINATION":"53.0552","RA_OF_ASC_NODE":"280.2425","MEAN_MOTION":"15.06400793","TIME_SYSTEM":"UTC","PERIAPSIS":"545.997","OBJECT_ID":"2020-074AK"},{"ELEMENT_SET_NO":"999","EPHEMERIS_TYPE":"0","REF_FRAME":"TEME","OBJECT_NAME":"STARLINK-1939","EPOCH":"2022-04-08T18:04:40.383552","ECCENTRICITY":"0.00005130","COUNTRY_CODE":"US","FILE":"3393990","CENTER_NAME":"EARTH","ARG_OF_PERICENTER":"168.4540","MEAN_ELEMENT_THEORY":"SGP4","PERIOD":"95.246","TLE_LINE1":"1 46774U 20074AM  22098.75324518  .00029177  00000-0  16961-2 0  9998","MEAN_ANOMALY":"191.6464","GP_ID":"200781071","DECAY_DATE":null,"LAUNCH_DATE":"2020-10-24","REV_AT_EPOCH":"8086","TLE_LINE2":"2 46774  53.0514 275.6753 0000513 168.4540 191.6464 15.11873781 80865","CLASSIFICATION_TYPE":"U","BSTAR":"0.00169610000000","APOAPSIS":"530.842","MEAN_MOTION_DDOT":"0.0000000000000","SITE":"AFETR","OBJECT_TYPE":"PAYLOAD","SEMIMAJOR_AXIS":"6908.623","RCS_SIZE":"LARGE","OBJECT_ID":"2020-074AM","PERIAPSIS":"530.133","MEAN_MOTION":"15.11873781","RA_OF_ASC_NODE":"275.6753","TIME_SYSTEM":"UTC","NORAD_CAT_ID":"46774","MEAN_MOTION_DOT":"0.00029177","INCLINATION":"53.0514"},{"TIME_SYSTEM":"UTC","RA_OF_ASC_NODE":"264.3816","MEAN_MOTION":"15.42197130","MEAN_MOTION_DOT":"0.00002567","INCLINATION":"53.0573","NORAD_CAT_ID":"46776","OBJECT_ID":"2020-074AP","PERIAPSIS":"438.130","RCS_SIZE":"LARGE","OBJECT_TYPE":"PAYLOAD","SEMIMAJOR_AXIS":"6817.763","APOAPSIS":"441.127","MEAN_MOTION_DDOT":"0.0000000000000","BSTAR":"0.00006834500000","SITE":"AFETR","LAUNCH_DATE":"2020-10-24","GP_ID":"200781323","DECAY_DATE":null,"CLASSIFICATION_TYPE":"U","REV_AT_EPOCH":"8102","TLE_LINE2":"2 46776  53.0573 264.3816 0002198  29.4130 330.6998 15.42197130 81026","TLE_LINE1":"1 46776U 20074AP  22098.85346010  .00002567  00000-0  68345-4 0  9991","MEAN_ANOMALY":"330.6998","COUNTRY_CODE":"US","FILE":"3393990","EPOCH":"2022-04-08T20:28:58.952640","ECCENTRICITY":"0.00021980","MEAN_ELEMENT_THEORY":"SGP4","PERIOD":"93.373","CENTER_NAME":"EARTH","ARG_OF_PERICENTER":"29.4130","EPHEMERIS_TYPE":"0","ELEMENT_SET_NO":"999","OBJECT_NAME":"STARLINK-1946","REF_FRAME":"TEME"},{"MEAN_ANOMALY":"307.5418","TLE_LINE1":"1 46779U 20074AS  22098.80625675  .00005008  00000-0  35471-3 0  9992","REV_AT_EPOCH":"8114","TLE_LINE2":"2 46779  53.0549 255.1037 0001737  52.5729 307.5418 15.06415282 81148","CLASSIFICATION_TYPE":"U","GP_ID":"200782073","DECAY_DATE":null,"LAUNCH_DATE":"2020-10-24","REF_FRAME":"TEME","OBJECT_NAME":"STARLINK-1798","ELEMENT_SET_NO":"999","EPHEMERIS_TYPE":"0","ARG_OF_PERICENTER":"52.5729","CENTER_NAME":"EARTH","MEAN_ELEMENT_THEORY":"SGP4","PERIOD":"95.591","EPOCH":"2022-04-08T19:21:00.583200","ECCENTRICITY":"0.00017370","FILE":"3393990","COUNTRY_CODE":"US","PERIAPSIS":"545.964","OBJECT_ID":"2020-074AS","NORAD_CAT_ID":"46779","MEAN_MOTION_DOT":"0.00005008","INCLINATION":"53.0549","MEAN_MOTION":"15.06415282","RA_OF_ASC_NODE":"255.1037","TIME_SYSTEM":"UTC","SITE":"AFETR","BSTAR":"0.00035471000000","APOAPSIS":"548.370","MEAN_MOTION_DDOT":"0.0000000000000","OBJECT_TYPE":"PAYLOAD","SEMIMAJOR_AXIS":"6925.302","RCS_SIZE":"LARGE"},{"FILE":"3393990","COUNTRY_CODE":"US","EPOCH":"2022-04-08T19:05:05.650656","ECCENTRICITY":"0.00016620","MEAN_ELEMENT_THEORY":"SGP4","PERIOD":"95.592","ARG_OF_PERICENTER":"57.6268","CENTER_NAME":"EARTH","EPHEMERIS_TYPE":"0","ELEMENT_SET_NO":"999","OBJECT_NAME":"STARLINK-1832","REF_FRAME":"TEME","LAUNCH_DATE":"2020-10-24","DECAY_DATE":null,"GP_ID":"200780821","CLASSIFICATION_TYPE":"U","TLE_LINE2":"2 46780  53.0571 255.1650 0001662  57.6268 302.4882 15.06405754 81149","REV_AT_EPOCH":"8114","TLE_LINE1":"1 46780U 20074AT  22098.79520429  .00002003  00000-0  15334-3 0  9991","MEAN_ANOMALY":"302.4882","RCS_SIZE":"LARGE","OBJECT_TYPE":"PAYLOAD","SEMIMAJOR_AXIS":"6925.331","APOAPSIS":"548.347","MEAN_MOTION_DDOT":"0.0000000000000","BSTAR":"0.00015334000000","SITE":"AFETR","TIME_SYSTEM":"UTC","MEAN_MOTION":"15.06405754","RA_OF_ASC_NODE":"255.1650","MEAN_MOTION_DOT":"0.00002003","INCLINATION":"53.0571","NORAD_CAT_ID":"46780","OBJECT_ID":"2020-074AT","PERIAPSIS":"546.045"},{"DECAY_DATE":null,"GP_ID":"200780572","LAUNCH_DATE":"2020-10-24","TLE_LINE2":"2 46781  53.0545 265.3787 0001575  56.2969 303.8170 15.06399884 81007","REV_AT_EPOCH":"8100","CLASSIFICATION_TYPE":"U","TLE_LINE1":"1 46781U 20074AU  22098.74637135  .00002735  00000-0  20241-3 0  9995","MEAN_ANOMALY":"303.8170","EPOCH":"2022-04-08T17:54:46.484640","ECCENTRICITY":"0.00015750","COUNTRY_CODE":"US","FILE":"3393990","ARG_OF_PERICENTER":"56.2969","CENTER_NAME":"EARTH","MEAN_ELEMENT_THEORY":"SGP4","PERIOD":"95.592","ELEMENT_SET_NO":"999","EPHEMERIS_TYPE":"0","REF_FRAME":"TEME","OBJECT_NAME":"STARLINK-1834","RA_OF_ASC_NODE":"265.3787","MEAN_MOTION":"15.06399884","TIME_SYSTEM":"UTC","NORAD_CAT_ID":"46781","MEAN_MOTION_DOT":"0.00002735","INCLINATION":"53.0545","OBJECT_ID":"2020-074AU","PERIAPSIS":"546.123","OBJECT_TYPE":"PAYLOAD","SEMIMAJOR_AXIS":"6925.349","RCS_SIZE":"LARGE","BSTAR":"0.00020241000000","MEAN_MOTION_DDOT":"0.0000000000000","APOAPSIS":"548.305","SITE":"AFETR"},{"CENTER_NAME":"EARTH","ARG_OF_PERICENTER":"52.6253","PERIOD":"95.591","MEAN_ELEMENT_THEORY":"SGP4","ECCENTRICITY":"0.00016640","EPOCH":"2022-04-08T20:24:42.899328","COUNTRY_CODE":"US","FILE":"3393990","REF_FRAME":"TEME","OBJECT_NAME":"STARLINK-1835","ELEMENT_SET_NO":"999","EPHEMERIS_TYPE":"0","REV_AT_EPOCH":"8115","TLE_LINE2":"2 46782  53.0544 254.8961 0001664  52.6253 307.4888 15.06410500 81150","CLASSIFICATION_TYPE":"U","GP_ID":"200781823","DECAY_DATE":null,"LAUNCH_DATE":"2020-10-24","MEAN_ANOMALY":"307.4888","TLE_LINE1":"1 46782U 20074AV  22098.85049652  .00003932  00000-0  28265-3 0  9993","SEMIMAJOR_AXIS":"6925.316","OBJECT_TYPE":"PAYLOAD","RCS_SIZE":"LARGE","SITE":"AFETR","BSTAR":"0.00028265000000","APOAPSIS":"548.334","MEAN_MOTION_DDOT":"0.0000000000000","NORAD_CAT_ID":"46782","INCLINATION":"53.0544","MEAN_MOTION_DOT":"0.00003932","RA_OF_ASC_NODE":"254.8961","MEAN_MOTION":"15.06410500","TIME_SYSTEM":"UTC","PERIAPSIS":"546.029","OBJECT_ID":"2020-074AV"},{"EPHEMERIS_TYPE":"0","ELEMENT_SET_NO":"999","OBJECT_NAME":"STARLINK-1851","REF_FRAME":"TEME","FILE":"3393990","COUNTRY_CODE":"US","ECCENTRICITY":"0.00015020","EPOCH":"2022-04-08T17:34:51.914784","PERIOD":"95.592","MEAN_ELEMENT_THEORY":"SGP4","ARG_OF_PERICENTER":"60.3107","CENTER_NAME":"EARTH","TLE_LINE1":"1 46783U 20074AW  22098.73254531  .00000265  00000-0  36706-4 0  9991","MEAN_ANOMALY":"299.8032","LAUNCH_DATE":"2020-10-24","DECAY_DATE":null,"GP_ID":"200781574","CLASSIFICATION_TYPE":"U","TLE_LINE2":"2 46783  53.0539 255.4376 0001502  60.3107 299.8032 15.06401540 81134","REV_AT_EPOCH":"8113","APOAPSIS":"548.249","MEAN_MOTION_DDOT":"0.0000000000000","BSTAR":"0.00003670600000","SITE":"AFETR","RCS_SIZE":"LARGE","SEMIMAJOR_AXIS":"6925.344","OBJECT_TYPE":"PAYLOAD","OBJECT_ID":"2020-074AW","PERIAPSIS":"546.169","TIME_SYSTEM":"UTC","MEAN_MOTION":"15.06401540","RA_OF_ASC_NODE":"255.4376","INCLINATION":"53.0539","MEAN_MOTION_DOT":"0.00000265","NORAD_CAT_ID":"46783"},{"BSTAR":"0.00018933000000","MEAN_MOTION_DDOT":"0.0000000000000","APOAPSIS":"548.191","SITE":"AFETR","SEMIMAJOR_AXIS":"6925.332","OBJECT_TYPE":"PAYLOAD","RCS_SIZE":"LARGE","OBJECT_ID":"2020-074AX","PERIAPSIS":"546.203","RA_OF_ASC_NODE":"255.4282","MEAN_MOTION":"15.06405419","TIME_SYSTEM":"UTC","NORAD_CAT_ID":"46784","INCLINATION":"53.0555","MEAN_MOTION_DOT":"0.00002540","ELEMENT_SET_NO":"999","EPHEMERIS_TYPE":"0","REF_FRAME":"TEME","OBJECT_NAME":"STARLINK-1882","ECCENTRICITY":"0.00014350","EPOCH":"2022-04-08T17:40:09.814080","FILE":"3393990","COUNTRY_CODE":"US","ARG_OF_PERICENTER":"78.7539","CENTER_NAME":"EARTH","PERIOD":"95.592","MEAN_ELEMENT_THEORY":"SGP4","TLE_LINE1":"1 46784U 20074AX  22098.73622470  .00002540  00000-0  18933-3 0  9992","MEAN_ANOMALY":"281.3611","GP_ID":"200780322","DECAY_DATE":null,"LAUNCH_DATE":"2020-10-24","REV_AT_EPOCH":"8113","TLE_LINE2":"2 46784  53.0555 255.4282 0001435  78.7539 281.3611 15.06405419 81134","CLASSIFICATION_TYPE":"U"}];
